STARLINK-31339          
1 58981U 24031S   26196.92533429  .00003778  00000+0  12288-3 0  9990
2 58981  53.1602  59.1376 0001248 103.5559 256.5582 15.34406734136172
STARLINK-31384          
1 58983U 24031U   26196.91904284 -.00000768  00000+0 -11605-4 0  9993
2 58983  53.1611  59.0946 0001410  95.7868 264.3295 15.34380645136172
STARLINK-31379          
1 58984U 24031V   26197.01831055  .00000560  00000+0  27714-4 0  9997
2 58984  53.1617  60.4215 0001444  76.6430 283.4734 15.34380117136167
STARLINK-31385          
1 58985U 24031W   26197.01926541  .00000342  00000+0  21270-4 0  9992
2 58985  53.1607  56.1342 0001440 100.4754 259.6411 15.34391688136220
STARLINK-31229          
1 58986U 24031X   26196.94686375  .00003041  00000+0  10115-3 0  9996
2 58986  53.1604  60.6905 0001119  88.7286 271.3844 15.34384059136151
CE-SAT-IE               
1 58987U 24032A   26197.13117863  .00000163  00000+0  36539-4 0  9992
2 58987  97.9952 251.1671 0002775  19.1102 341.0206 14.68308746129081
TIRSAT                  
1 58989U 24032C   26197.12361326  .00000549  00000+0  94252-4 0  9992
2 58989  97.9952 255.0014 0006061  64.9055 295.2781 14.72523792129346
INSAT-3DS               
1 58990U 24033A   26197.15739200 -.00000166  00000+0  00000+0 0  9997
2 58990   0.0884 264.5566 0001089 224.0381 304.1257  1.00270833 47350
ADRAS-J                 
1 58992U 24034A   26197.28734450  .00078471  00000+0  81632-3 0  9993
2 58992  98.2163 232.3876 0140378   9.3312 351.0496 15.52928778132093
MERAH PUTIH 2           
1 58995U 24035A   26195.34489189 -.00000365  00000+0  00000+0 0  9992
2 58995   0.0215  82.0854 0001062  34.4456  52.7926  1.00270544  8864
AAC-AIS-SAT3            
1 58997U 23174DJ  26197.24852550  .00001408  00000+0  17142-3 0  9991
2 58997  97.6226 244.6523 0005726 211.2957 148.7918 14.84894863145468
STARLINK-31468          
1 58998U 24036A   26197.27077188  .00000270  00000+0  21243-4 0  9993
2 58998  53.1586 200.6020 0001212  95.5710 264.5429 15.30186206135027
STARLINK-31440          
1 58999U 24036B   26197.27288237  .00000018  00000+0  12740-4 0  9995
2 58999  53.1590 200.6081 0001181  81.6558 278.4577 15.30184928134207
STARLINK-31529          
1 59000U 24036C   26197.22497673  .00000420  00000+0  26304-4 0  9998
2 59000  53.1591 198.8982 0001174  81.8595 278.2539 15.30193740134955
STARLINK-31431          
1 59002U 24036E   26196.53343770 -.00000064  00000+0  99777-5 0  9991
2 59002  53.1599 204.5262 0001172  78.2317 281.8815 15.30181958134899
STARLINK-31435          
1 59004U 24036G   26197.20862249 -.00000254  00000+0  35416-5 0  9996
2 59004  53.1594 200.9173 0001112  78.2060 281.9066 15.30196886135016
STARLINK-31484          
1 59005U 24036H   26197.27710150 -.00000786  00000+0 -14423-4 0  9992
2 59005  53.1596 200.6323 0000924  42.4825 317.6247 15.30189506135014
STARLINK-31450          
1 59006U 24036J   26197.21917994  .00001193  00000+0  52400-4 0  9990
2 59006  53.1599 200.9828 0001298  83.5035 276.6114 15.30195043135004
STARLINK-31456          
1 59007U 24036K   26197.21495434  .00005492  00000+0  19759-3 0  9996
2 59007  53.1587 200.9552 0001221  81.9607 278.1532 15.30171873135005
STARLINK-31460          
1 59008U 24036L   26197.17904152  .00026437  00000+0  89696-3 0  9993
2 59008  53.1596 201.4464 0002006 116.3581 243.7626 15.30364545134999
STARLINK-31488          
1 59009U 24036M   26197.27604881  .00000450  00000+0  27324-4 0  9999
2 59009  53.1593 200.6247 0001117  79.9840 280.1287 15.30186912135013
STARLINK-31528          
1 59010U 24036N   26197.20026775 -.00002942  00000+0 -87130-4 0  9995
2 59010  53.1591 201.5790 0001740  62.7407 297.3771 15.30239435134990
STARLINK-31491          
1 59011U 24036P   26197.20134676  .00000191  00000+0  18585-4 0  9996
2 59011  53.1589 201.5786 0001357  90.7203 269.3953 15.30191916134994
STARLINK-31465          
1 59012U 24036Q   26197.26139497  .00005278  00000+0  19017-3 0  9990
2 59012  53.1583 201.2414 0001319  81.6634 278.4517 15.30204353135009
STARLINK-31389          
1 59013U 24036R   26197.19143139 -.00000232  00000+0  42949-5 0  9999
2 59013  53.1598 201.5176 0001063  80.3990 279.7131 15.31697554135007
STARLINK-31454          
1 59014U 24036S   26197.19290887  .00001221  00000+0  53385-4 0  9996
2 59014  53.1588 201.5256 0001133  82.8743 277.2386 15.30172606134994
STARLINK-31521          
1 59015U 24036T   26197.19185320  .00000754  00000+0  37595-4 0  9997
2 59015  53.1587 201.5191 0000935  91.2030 268.9078 15.30176896134994
STARLINK-31526          
1 59016U 24036U   26197.18454256 -.00000489  00000+0 -40024-5 0  9993
2 59016  53.1592 175.1529 0001005  70.4174 289.6936 15.31690779135366
STARLINK-31406          
1 59017U 24036V   26197.23301536  .00000445  00000+0  24325-4 0  9997
2 59017  53.1586 185.4575 0001374  88.9584 271.1576 15.34387232135224
STARLINK-31527          
1 59018U 24036W   26197.25002315 -.00016346  00000+0 -47398-3 0  9996
2 59018  53.1588 201.0755 0001186  82.4939 330.4555 15.34380527  5879
