OBJECT_NAME,OBJECT_ID,EPOCH,MEAN_MOTION,ECCENTRICITY,INCLINATION,RA_OF_ASC_NODE,ARG_OF_PERICENTER,MEAN_ANOMALY,EPHEMERIS_TYPE,CLASSIFICATION_TYPE,NORAD_CAT_ID,ELEMENT_SET_NO,REV_AT_EPOCH,BSTAR,MEAN_MOTION_DOT,MEAN_MOTION_DDOT
STARLINK-31339,2024-031S,2026-07-15T22:12:28.882656,15.34406734,.0001248,53.1602,59.1376,103.5559,256.5582,0,U,58981,999,13617,.12288E-3,.3778E-4,0
STARLINK-31384,2024-031U,2026-07-15T22:03:25.301376,15.34380645,.00014106,53.1611,59.0946,95.7868,264.3295,0,U,58983,999,13617,-.11605389E-4,-.768E-5,0
STARLINK-31379,2024-031V,2026-07-16T00:26:22.031520,15.34380117,.00014444,53.1617,60.4215,76.6430,283.4734,0,U,58984,999,13616,.27714047E-4,.56E-5,0
STARLINK-31385,2024-031W,2026-07-16T00:27:44.531424,15.34391688,.00014406,53.1607,56.1342,100.4754,259.6411,0,U,58985,999,13622,.21270256E-4,.342E-5,0
STARLINK-31229,2024-031X,2026-07-15T22:43:29.028000,15.34384059,.0001119,53.1604,60.6905,88.7286,271.3844,0,U,58986,999,13615,.10115E-3,.3041E-4,0
CE-SAT-IE,2024-032A,2026-07-16T03:08:53.833632,14.68308746,.00027754,97.9952,251.1671,19.1102,341.0206,0,U,58987,999,12908,.36539145E-4,.163E-5,0
TIRSAT,2024-032C,2026-07-16T02:58:00.185664,14.72523792,.00060616,97.9952,255.0014,64.9055,295.2781,0,U,58989,999,12934,.94252006E-4,.549E-5,0
INSAT-3DS,2024-033A,2026-07-16T03:46:38.668800,1.00270833,.00010892,0.0884,264.5566,224.0381,304.1257,0,U,58990,999,4735,0,-.166E-5,0
ADRAS-J,2024-034A,2026-07-16T06:53:46.564800,15.52928778,.01403782,98.2163,232.3876,9.3312,351.0496,0,U,58992,999,13209,.81632031E-3,.78471E-3,0
MERAH PUTIH 2,2024-035A,2026-07-14T08:16:38.659296,1.00270544,.00010623,0.0215,82.0854,34.4456,52.7926,0,U,58995,999,886,0,-.365E-5,0
AAC-AIS-SAT3,2023-174DJ,2026-07-16T05:57:52.603200,14.84894863,.00057261,97.6226,244.6523,211.2957,148.7918,0,U,58997,999,14546,.17141676E-3,.1408E-4,0
STARLINK-31468,2024-036A,2026-07-16T06:29:54.690432,15.30186206,.00012124,53.1586,200.6020,95.5710,264.5429,0,U,58998,999,13502,.21243122E-4,.27E-5,0
STARLINK-31440,2024-036B,2026-07-16T06:32:57.036768,15.30184928,.00011813,53.1590,200.6081,81.6558,278.4577,0,U,58999,999,13420,.12739988E-4,.18E-6,0
STARLINK-31529,2024-036C,2026-07-16T05:23:57.989472,15.30193740,.00011744,53.1591,198.8982,81.8595,278.2539,0,U,59000,999,13495,.26304189E-4,.42E-5,0
STARLINK-31431,2024-036E,2026-07-15T12:48:09.017280,15.30181958,.0001172,53.1599,204.5262,78.2317,281.8815,0,U,59002,999,13489,.99777E-5,-.64E-6,0
STARLINK-31435,2024-036G,2026-07-16T05:00:24.983136,15.30196886,.00011125,53.1594,200.9173,78.2060,281.9066,0,U,59004,999,13501,.354158E-5,-.254E-5,0
STARLINK-31484,2024-036H,2026-07-16T06:39:01.569600,15.30189506,.00009249,53.1596,200.6323,42.4825,317.6247,0,U,59005,999,13501,-.14422645E-4,-.786E-5,0
STARLINK-31450,2024-036J,2026-07-16T05:15:37.146816,15.30195043,.00012988,53.1599,200.9828,83.5035,276.6114,0,U,59006,999,13500,.5239963E-4,.1193E-4,0
STARLINK-31456,2024-036K,2026-07-16T05:09:32.054976,15.30171873,.00012218,53.1587,200.9552,81.9607,278.1532,0,U,59007,999,13500,.19759309E-3,.5492E-4,0
STARLINK-31460,2024-036L,2026-07-16T04:17:49.187328,15.30364545,.00020061,53.1596,201.4464,116.3581,243.7626,0,U,59008,999,13499,.89696254E-3,.26437E-3,0
STARLINK-31488,2024-036M,2026-07-16T06:37:30.617184,15.30186912,.00011173,53.1593,200.6247,79.9840,280.1287,0,U,59009,999,13501,.27323852E-4,.45E-5,0
STARLINK-31528,2024-036N,2026-07-16T04:48:23.133600,15.30239435,.00017401,53.1591,201.5790,62.7407,297.3771,0,U,59010,999,13499,-.87129714E-4,-.2942E-4,0
STARLINK-31491,2024-036P,2026-07-16T04:49:56.360064,15.30191916,.00013577,53.1589,201.5786,90.7203,269.3953,0,U,59011,999,13499,.18584946E-4,.191E-5,0
STARLINK-31465,2024-036Q,2026-07-16T06:16:24.525408,15.30204353,.00013199,53.1583,201.2414,81.6634,278.4517,0,U,59012,999,13500,.1901716E-3,.5278E-4,0
STARLINK-31389,2024-036R,2026-07-16T04:35:39.672096,15.31697554,.00010638,53.1598,201.5176,80.3990,279.7131,0,U,59013,999,13500,.4294915E-5,-.232E-5,0
STARLINK-31454,2024-036S,2026-07-16T04:37:47.326368,15.30172606,.00011333,53.1588,201.5256,82.8743,277.2386,0,U,59014,999,13499,.53385313E-4,.1221E-4,0
STARLINK-31521,2024-036T,2026-07-16T04:36:16.116480,15.30176896,.00009351,53.1587,201.5191,91.2030,268.9078,0,U,59015,999,13499,.37594741E-4,.754E-5,0
STARLINK-31526,2024-036U,2026-07-16T04:25:44.477184,15.31690779,.00010057,53.1592,175.1529,70.4174,289.6936,0,U,59016,999,13536,-.4002382E-5,-.489E-5,0
STARLINK-31406,2024-036V,2026-07-16T05:35:32.527104,15.34387232,.00013744,53.1586,185.4575,88.9584,271.1576,0,U,59017,999,13522,.24325443E-4,.445E-5,0
STARLINK-31527,2024-036W,2026-07-16T06:00:02.000160,15.34380527,.00011867,53.1588,201.0755,82.4939,330.4555,0,U,59018,999,587,-.47397816E-3,-.16346E-3,0
